GLOBALSTAR M067         
1 32263U 07048A   24344.85707411 -.00000075  00000+0  16562-3 0  9990
2 32263  51.9716 229.9250 0000872   9.8587  91.4604 12.40662430785989
GLOBALSTAR M070         
1 32264U 07048B   24344.75846348 -.00000064  00000+0  22408-3 0  9997
2 32264  51.9769 345.5761 0000457  61.1976 110.2700 12.62307611789748
GLOBALSTAR M066         
1 32265U 07048C   24344.92071509 -.00000061  00000+0  26660-3 0  9997
2 32265  51.9654 216.4312 0001505  62.9590 310.4134 12.42168257791866
GLOBALSTAR M068         
1 32266U 07048D   24344.92740874 -.00000052  00000+0  28657-3 0  9994
2 32266  51.9857 159.1776 0002105  88.1733  76.4145 12.62811136793647
GLOBALSTAR M079         
1 37188U 10054A   24344.79312985 -.00000084  00000+0  11244-3 0  9995
2 37188  52.0056 356.3337 0000186 167.9065   3.0046 12.62268074652538
GLOBALSTAR M074         
1 37189U 10054B   24344.87504591 -.00000084  00000+0  10987-3 0  9994
2 37189  52.0034 355.4339 0000305  51.8532  12.7035 12.62260054653154
GLOBALSTAR M076         
1 37190U 10054C   24344.76684595 -.00000079  00000+0  13956-3 0  9990
2 37190  52.0049 355.9197 0000156 339.2269 191.9090 12.62274509652850
GLOBALSTAR M077         
1 37191U 10054D   24344.88172921 -.00000079  00000+0  13829-3 0  9998
2 37191  52.0085 312.3721 0000450  51.1331 342.0223 12.62267977653240
